[{"OBJECT_NAME":"STARLINK-5019","OBJECT_ID":"2023-014S","EPOCH":"2026-03-09T10:12:41.700960","MEAN_MOTION":14.98345014,"ECCENTRICITY":0.00039359,"INCLINATION":69.9993,"RA_OF_ASC_NODE":65.2133,"ARG_OF_PERICENTER":271.9946,"MEAN_ANOMALY":88.0763,"EPHEMERIS_TYPE":0,"CLASSIFICATION_TYPE":"U","NORAD_CAT_ID":55407,"ELEMENT_SET_NO":999,"REV_AT_EPOCH":17201,"BSTAR":0.00010961402,"MEAN_MOTION_DOT":1.216e-5,"MEAN_MOTION_DDOT":0},{"OBJECT_NAME":"TIROS 6","OBJECT_ID":"1962-047A","EPOCH":"2026-03-09T22:32:46.825440","MEAN_MOTION":14.95739722,"ECCENTRICITY":0.00128175,"INCLINATION":58.3026,"RA_OF_ASC_NODE":287.9356,"ARG_OF_PERICENTER":61.4296,"MEAN_ANOMALY":298.8041,"EPHEMERIS_TYPE":0,"CLASSIFICATION_TYPE":"U","NORAD_CAT_ID":397,"ELEMENT_SET_NO":999,"REV_AT_EPOCH":39747,"BSTAR":0.00017529326,"MEAN_MOTION_DOT":1.739e-5,"MEAN_MOTION_DDOT":0}]
